[{"OBJECT_NAME":"STARLINK-35135","OBJECT_ID":"2025-210H","EPOCH":"2025-12-12T07:27:28.916640","MEAN_MOTION":15.30155549,"ECCENTRICITY":0.00013364,"INCLINATION":53.1595,"RA_OF_ASC_NODE":352.9018,"ARG_OF_PERICENTER":71.18,"MEAN_ANOMALY":288.9345,"EPHEMERIS_TYPE":0,"CLASSIFICATION_TYPE":"U","NORAD_CAT_ID":65629,"ELEMENT_SET_NO":999,"REV_AT_EPOCH":1435,"BSTAR":0.00054690549,"MEAN_MOTION_DOT":0.00015851,"MEAN_MOTION_DDOT":0},{"OBJECT_NAME":"STARLINK-34877","OBJECT_ID":"2025-210J","EPOCH":"2025-12-12T07:12:17.432928","MEAN_MOTION":15.30184639,"ECCENTRICITY":0.0001188,"INCLINATION":53.1602,"RA_OF_ASC_NODE":352.8375,"ARG_OF_PERICENTER":76.3631,"MEAN_ANOMALY":283.7502,"EPHEMERIS_TYPE":0,"CLASSIFICATION_TYPE":"U","NORAD_CAT_ID":65630,"ELEMENT_SET_NO":999,"REV_AT_EPOCH":1435,"BSTAR":1.8634975e-5,"MEAN_MOTION_DOT":1.93e-6,"MEAN_MOTION_DDOT":0},{"OBJECT_NAME":"STARLINK-35104","OBJECT_ID":"2025-210K","EPOCH":"2025-12-12T07:07:44.001984","MEAN_MOTION":15.30183824,"ECCENTRICITY":0.00019631,"INCLINATION":53.1609,"RA_OF_ASC_NODE":352.8151,"ARG_OF_PERICENTER":77.4323,"MEAN_ANOMALY":282.6897,"EPHEMERIS_TYPE":0,"CLASSIFICATION_TYPE":"U","NORAD_CAT_ID":65631,"ELEMENT_SET_NO":999,"REV_AT_EPOCH":1434,"BSTAR":-0.00038004003,"MEAN_MOTION_DOT":-0.00011593,"MEAN_MOTION_DDOT":0},{"OBJECT_NAME":"STARLINK-35117","OBJECT_ID":"2025-210L","EPOCH":"2025-12-12T06:40:35.020704","MEAN_MOTION":15.30191583,"ECCENTRICITY":0.00019069,"INCLINATION":53.1607,"RA_OF_ASC_NODE":353.412,"ARG_OF_PERICENTER":93.0586,"MEAN_ANOMALY":267.0633,"EPHEMERIS_TYPE":0,"CLASSIFICATION_TYPE":"U","NORAD_CAT_ID":65632,"ELEMENT_SET_NO":999,"REV_AT_EPOCH":1434,"BSTAR":0.0022421761,"MEAN_MOTION_DOT":0.00066628,"MEAN_MOTION_DDOT":0},{"OBJECT_NAME":"STARLINK-35103","OBJECT_ID":"2025-210M","EPOCH":"2025-12-12T07:16:50.996064","MEAN_MOTION":15.30186846,"ECCENTRICITY":0.00014126,"INCLINATION":53.1606,"RA_OF_ASC_NODE":352.8533,"ARG_OF_PERICENTER":83.1882,"MEAN_ANOMALY":276.9279,"EPHEMERIS_TYPE":0,"CLASSIFICATION_TYPE":"U","NORAD_CAT_ID":65633,"ELEMENT_SET_NO":999,"REV_AT_EPOCH":1435,"BSTAR":8.18852e-5,"MEAN_MOTION_DOT":2.066e-5,"MEAN_MOTION_DDOT":0},{"OBJECT_NAME":"STARLINK-35123","OBJECT_ID":"2025-210N","EPOCH":"2025-12-12T06:20:46.917024","MEAN_MOTION":15.30164242,"ECCENTRICITY":0.00019039,"INCLINATION":53.159,"RA_OF_ASC_NODE":353.3262,"ARG_OF_PERICENTER":62.8926,"MEAN_ANOMALY":297.2269,"EPHEMERIS_TYPE":0,"CLASSIFICATION_TYPE":"U","NORAD_CAT_ID":65634,"ELEMENT_SET_NO":999,"REV_AT_EPOCH":1434,"BSTAR":-0.00022601915,"MEAN_MOTION_DOT":-7.04e-5,"MEAN_MOTION_DDOT":0},{"OBJECT_NAME":"STARLINK-35150","OBJECT_ID":"2025-210P","EPOCH":"2025-12-12T06:34:27.518304","MEAN_MOTION":15.30187515,"ECCENTRICITY":0.00013501,"INCLINATION":53.1613,"RA_OF_ASC_NODE":353.3811,"ARG_OF_PERICENTER":37.6197,"MEAN_ANOMALY":322.4898,"EPHEMERIS_TYPE":0,"CLASSIFICATION_TYPE":"U","NORAD_CAT_ID":65635,"ELEMENT_SET_NO":999,"REV_AT_EPOCH":1434,"BSTAR":0.0020131583,"MEAN_MOTION_DOT":0.00059722,"MEAN_MOTION_DDOT":0},{"OBJECT_NAME":"STARLINK-35209","OBJECT_ID":"2025-210Q","EPOCH":"2025-12-12T07:39:38.408256","MEAN_MOTION":15.30154825,"ECCENTRICITY":0.00015513,"INCLINATION":53.1594,"RA_OF_ASC_NODE":352.9552,"ARG_OF_PERICENTER":106.3539,"MEAN_ANOMALY":253.7633,"EPHEMERIS_TYPE":0,"CLASSIFICATION_TYPE":"U","NORAD_CAT_ID":65636,"ELEMENT_SET_NO":999,"REV_AT_EPOCH":1435,"BSTAR":0.00045614737,"MEAN_MOTION_DOT":0.00013156,"MEAN_MOTION_DDOT":0},{"OBJECT_NAME":"STARLINK-35147","OBJECT_ID":"2025-210R","EPOCH":"2025-12-12T07:32:02.688000","MEAN_MOTION":15.30147858,"ECCENTRICITY":0.00014185,"INCLINATION":53.1593,"RA_OF_ASC_NODE":352.921,"ARG_OF_PERICENTER":76.9208,"MEAN_ANOMALY":283.1951,"EPHEMERIS_TYPE":0,"CLASSIFICATION_TYPE":"U","NORAD_CAT_ID":65637,"ELEMENT_SET_NO":999,"REV_AT_EPOCH":1435,"BSTAR":0.0013481023,"MEAN_MOTION_DOT":0.00039717,"MEAN_MOTION_DDOT":0},{"OBJECT_NAME":"STARLINK-35213","OBJECT_ID":"2025-210S","EPOCH":"2025-12-12T07:25:58.027296","MEAN_MOTION":15.301496,"ECCENTRICITY":0.00012845,"INCLINATION":53.1599,"RA_OF_ASC_NODE":352.8934,"ARG_OF_PERICENTER":98.7048,"MEAN_ANOMALY":261.4098,"EPHEMERIS_TYPE":0,"CLASSIFICATION_TYPE":"U","NORAD_CAT_ID":65638,"ELEMENT_SET_NO":999,"REV_AT_EPOCH":1435,"BSTAR":0.0011999033,"MEAN_MOTION_DOT":0.00035292,"MEAN_MOTION_DDOT":0},{"OBJECT_NAME":"STARLINK-35127","OBJECT_ID":"2025-210T","EPOCH":"2025-12-12T07:13:47.382240","MEAN_MOTION":15.30132524,"ECCENTRICITY":0.00015315,"INCLINATION":53.1612,"RA_OF_ASC_NODE":352.8393,"ARG_OF_PERICENTER":116.2671,"MEAN_ANOMALY":243.8488,"EPHEMERIS_TYPE":0,"CLASSIFICATION_TYPE":"U","NORAD_CAT_ID":65639,"ELEMENT_SET_NO":999,"REV_AT_EPOCH":1435,"BSTAR":0.00019096443,"MEAN_MOTION_DOT":5.289e-5,"MEAN_MOTION_DDOT":0},{"OBJECT_NAME":"STARLINK-35091","OBJECT_ID":"2025-210U","EPOCH":"2025-12-12T07:09:14.258016","MEAN_MOTION":15.30233142,"ECCENTRICITY":0.00014321,"INCLINATION":53.1608,"RA_OF_ASC_NODE":352.8209,"ARG_OF_PERICENTER":87.3253,"MEAN_ANOMALY":272.7912,"EPHEMERIS_TYPE":0,"CLASSIFICATION_TYPE":"U","NORAD_CAT_ID":65640,"ELEMENT_SET_NO":999,"REV_AT_EPOCH":1435,"BSTAR":0.0010275225,"MEAN_MOTION_DOT":0.00030228,"MEAN_MOTION_DDOT":0},{"OBJECT_NAME":"STARLINK-35134","OBJECT_ID":"2025-210V","EPOCH":"2025-12-12T07:03:10.288512","MEAN_MOTION":15.30172366,"ECCENTRICITY":0.00014702,"INCLINATION":53.1618,"RA_OF_ASC_NODE":352.7945,"ARG_OF_PERICENTER":81.2006,"MEAN_ANOMALY":278.9161,"EPHEMERIS_TYPE":0,"CLASSIFICATION_TYPE":"U","NORAD_CAT_ID":65641,"ELEMENT_SET_NO":999,"REV_AT_EPOCH":1435,"BSTAR":0.0012861594,"MEAN_MOTION_DOT":0.00037895,"MEAN_MOTION_DDOT":0},{"OBJECT_NAME":"STARLINK-35109","OBJECT_ID":"2025-210W","EPOCH":"2025-12-12T06:54:03.442176","MEAN_MOTION":15.30130187,"ECCENTRICITY":0.00015134,"INCLINATION":53.163,"RA_OF_ASC_NODE":352.7526,"ARG_OF_PERICENTER":101.7843,"MEAN_ANOMALY":258.3328,"EPHEMERIS_TYPE":0,"CLASSIFICATION_TYPE":"U","NORAD_CAT_ID":65642,"ELEMENT_SET_NO":999,"REV_AT_EPOCH":1435,"BSTAR":0.0019385036,"MEAN_MOTION_DOT":0.00057374,"MEAN_MOTION_DDOT":0},{"OBJECT_NAME":"STARLINK-35062","OBJECT_ID":"2025-210X","EPOCH":"2025-12-12T06:52:31.973088","MEAN_MOTION":15.3017534,"ECCENTRICITY":0.0001218,"INCLINATION":53.1619,"RA_OF_ASC_NODE":352.7472,"ARG_OF_PERICENTER":53.0411,"MEAN_ANOMALY":307.0701,"EPHEMERIS_TYPE":0,"CLASSIFICATION_TYPE":"U","NORAD_CAT_ID":65643,"ELEMENT_SET_NO":999,"REV_AT_EPOCH":1435,"BSTAR":0.0012242277,"MEAN_MOTION_DOT":0.00036047,"MEAN_MOTION_DDOT":0},{"OBJECT_NAME":"STARLINK-35141","OBJECT_ID":"2025-210Y","EPOCH":"2025-12-12T06:39:00.379872","MEAN_MOTION":15.30215629,"ECCENTRICITY":0.00017322,"INCLINATION":53.1625,"RA_OF_ASC_NODE":353.3993,"ARG_OF_PERICENTER":99.3261,"MEAN_ANOMALY":260.7936,"EPHEMERIS_TYPE":0,"CLASSIFICATION_TYPE":"U","NORAD_CAT_ID":65644,"ELEMENT_SET_NO":999,"REV_AT_EPOCH":1434,"BSTAR":0.00088618635,"MEAN_MOTION_DOT":0.00025992,"MEAN_MOTION_DDOT":0},{"OBJECT_NAME":"STARLINK-35237","OBJECT_ID":"2025-210Z","EPOCH":"2025-12-12T06:43:34.961664","MEAN_MOTION":15.30148339,"ECCENTRICITY":0.00014841,"INCLINATION":53.1632,"RA_OF_ASC_NODE":353.4182,"ARG_OF_PERICENTER":79.9482,"MEAN_ANOMALY":280.1686,"EPHEMERIS_TYPE":0,"CLASSIFICATION_TYPE":"U","NORAD_CAT_ID":65645,"ELEMENT_SET_NO":999,"REV_AT_EPOCH":1434,"BSTAR":0.0010310838,"MEAN_MOTION_DOT":0.00030254,"MEAN_MOTION_DDOT":0},{"OBJECT_NAME":"STARLINK-35183","OBJECT_ID":"2025-210AA","EPOCH":"2025-12-12T06:29:52.767168","MEAN_MOTION":15.30191163,"ECCENTRICITY":0.00018558,"INCLINATION":53.1608,"RA_OF_ASC_NODE":353.3587,"ARG_OF_PERICENTER":102.8936,"MEAN_ANOMALY":257.2272,"EPHEMERIS_TYPE":0,"CLASSIFICATION_TYPE":"U","NORAD_CAT_ID":65646,"ELEMENT_SET_NO":999,"REV_AT_EPOCH":1434,"BSTAR":-0.0003854783,"MEAN_MOTION_DOT":-0.00011756,"MEAN_MOTION_DDOT":0},{"OBJECT_NAME":"STARLINK-35202","OBJECT_ID":"2025-210AB","EPOCH":"2025-12-12T06:22:18.414624","MEAN_MOTION":15.30146319,"ECCENTRICITY":0.00016853,"INCLINATION":53.1596,"RA_OF_ASC_NODE":353.3249,"ARG_OF_PERICENTER":38.6035,"MEAN_ANOMALY":321.5086,"EPHEMERIS_TYPE":0,"CLASSIFICATION_TYPE":"U","NORAD_CAT_ID":65647,"ELEMENT_SET_NO":999,"REV_AT_EPOCH":1434,"BSTAR":0.0015229806,"MEAN_MOTION_DOT":0.00044946,"MEAN_MOTION_DDOT":0},{"OBJECT_NAME":"STARLINK-34868","OBJECT_ID":"2025-210AC","EPOCH":"2025-12-12T07:44:11.998176","MEAN_MOTION":15.30155247,"ECCENTRICITY":0.00014548,"INCLINATION":53.1611,"RA_OF_ASC_NODE":352.965,"ARG_OF_PERICENTER":95.0134,"MEAN_ANOMALY":265.1033,"EPHEMERIS_TYPE":0,"CLASSIFICATION_TYPE":"U","NORAD_CAT_ID":65648,"ELEMENT_SET_NO":999,"REV_AT_EPOCH":1435,"BSTAR":0.0012032927,"MEAN_MOTION_DOT":0.00035399,"MEAN_MOTION_DDOT":0},{"OBJECT_NAME":"STARLINK-35079","OBJECT_ID":"2025-210AD","EPOCH":"2025-12-12T06:19:15.309696","MEAN_MOTION":15.30223335,"ECCENTRICITY":0.00012663,"INCLINATION":53.1611,"RA_OF_ASC_NODE":353.3086,"ARG_OF_PERICENTER":122.8255,"MEAN_ANOMALY":237.2868,"EPHEMERIS_TYPE":0,"CLASSIFICATION_TYPE":"U","NORAD_CAT_ID":65649,"ELEMENT_SET_NO":999,"REV_AT_EPOCH":1434,"BSTAR":0.00108854,"MEAN_MOTION_DOT":0.00032043,"MEAN_MOTION_DDOT":0},{"OBJECT_NAME":"STARLINK-35328","OBJECT_ID":"2025-211A","EPOCH":"2025-12-12T06:22:50.217600","MEAN_MOTION":15.05627232,"ECCENTRICITY":7.659e-5,"INCLINATION":97.6065,"RA_OF_ASC_NODE":27.8308,"ARG_OF_PERICENTER":136.1749,"MEAN_ANOMALY":223.9539,"EPHEMERIS_TYPE":0,"CLASSIFICATION_TYPE":"U","NORAD_CAT_ID":65652,"ELEMENT_SET_NO":999,"REV_AT_EPOCH":1388,"BSTAR":0.00032590923,"MEAN_MOTION_DOT":4.642e-5,"MEAN_MOTION_DDOT":0},{"OBJECT_NAME":"STARLINK-34210","OBJECT_ID":"2025-211B","EPOCH":"2025-12-12T03:03:25.849728","MEAN_MOTION":15.0565912,"ECCENTRICITY":0.00017409,"INCLINATION":97.6063,"RA_OF_ASC_NODE":27.708,"ARG_OF_PERICENTER":94.2609,"MEAN_ANOMALY":265.8817,"EPHEMERIS_TYPE":0,"CLASSIFICATION_TYPE":"U","NORAD_CAT_ID":65653,"ELEMENT_SET_NO":999,"REV_AT_EPOCH":1386,"BSTAR":0.00055729075,"MEAN_MOTION_DOT":7.991e-5,"MEAN_MOTION_DDOT":0}]
